[{"OBJECT_NAME":"STARLINK-31169","OBJECT_ID":"2024-012Y","EPOCH":"2026-03-09T06:56:10.111488","MEAN_MOTION":15.27572273,"ECCENTRICITY":0.00016039,"INCLINATION":43.0027,"RA_OF_ASC_NODE":167.5933,"ARG_OF_PERICENTER":276.3812,"MEAN_ANOMALY":83.6857,"EPHEMERIS_TYPE":0,"CLASSIFICATION_TYPE":"U","NORAD_CAT_ID":58809,"ELEMENT_SET_NO":999,"REV_AT_EPOCH":12117,"BSTAR":8.5431733e-5,"MEAN_MOTION_DOT":2.089e-5,"MEAN_MOTION_DDOT":0},{"OBJECT_NAME":"BANDWAGON-4 OBJECT M","OBJECT_ID":"2025-248M","EPOCH":"2026-03-09T00:50:26.830464","MEAN_MOTION":15.24295413,"ECCENTRICITY":0.00129441,"INCLINATION":45.4108,"RA_OF_ASC_NODE":294.9904,"ARG_OF_PERICENTER":207.5285,"MEAN_ANOMALY":152.4918,"EPHEMERIS_TYPE":0,"CLASSIFICATION_TYPE":"U","NORAD_CAT_ID":66304,"ELEMENT_SET_NO":999,"REV_AT_EPOCH":1803,"BSTAR":0.00095703617,"MEAN_MOTION_DOT":0.00023645,"MEAN_MOTION_DDOT":0}]
